SL-16 R/B               
1 22566U 93016B   25348.82549897  .00000025  00000+0  37080-4 0  9992
2 22566  71.0080  33.4232 0007939  93.5255 266.6776 14.15286904690165
COSMOS 2242             
1 22626U 93024A   25348.97661697  .00001662  00000+0  14525-3 0  9993
2 22626  82.5188 347.7069 0015072 225.9621 134.0360 14.96116537767729
SL-16 R/B               
1 22803U 93059B   25348.92016589 -.00000166  00000+0 -58082-4 0  9994
2 22803  70.9886 189.8885 0018118 332.4699  27.5463 14.17213300667522
ARIANE 40 R/B           
1 22830U 93061H   25348.78310272  .00000315  00000+0  13122-3 0  9996
2 22830  98.5075  54.2758 0010996 170.0729 190.0674 14.32802813681940
COSMOS 2278             
1 23087U 94023A   25348.72837665 -.00000187  00000+0 -73264-4 0  9997
2 23087  71.0539 352.8505 0008216 176.4765 183.6417 14.14349943632797
SL-16 R/B               
1 23088U 94023B   25348.88427822 -.00000088  00000+0 -21079-4 0  9992
2 23088  71.0003 248.9824 0001489  19.8906 340.2275 14.15002958634096
SL-16 R/B               
1 23343U 94074B   25348.86040094  .00000526  00000+0  77310-4 0  9996
2 23343  97.7201  18.0807 0007674 129.9041  43.1397 14.79291833674705
SL-16 R/B               
1 23405U 94077B   25348.89897258  .00000265  00000+0  16000-3 0  9991
2 23405  70.9812 170.8709 0004705 282.5095  77.5501 14.15551108604233
ARIANE 40+ R/B          
1 23561U 95021B   25348.83132895  .00000366  00000+0  13091-3 0  9996
2 23561  98.4649  56.3949 0007404  44.5117  67.2244 14.39697156607034
SL-16 R/B               
1 23705U 95058B   25348.76042309 -.00000056  00000+0 -40453-5 0  9990
2 23705  71.0225 358.5619 0014981 252.8983 107.0500 14.15484132555835
SL-16 R/B               
1 24298U 96051B   25348.75492771  .00000038  00000+0  47087-4 0  9990
2 24298  70.7596 355.0183 0019434 258.8777 101.0158 14.12397110509651
ORBVIEW 2 (SEASTAR)     
1 24883U 97037A   25348.93677175  .00000326  00000+0  12979-3 0  9999
2 24883  98.8457 146.0665 0001568 333.3486  26.7618 14.35418766496314
