CCSDS_OMM_VERS = 2.0
CREATION_DATE  = 
ORIGINATOR     = 

OBJECT_NAME    = SL-16 R/B
OBJECT_ID      = 1993-016B
CENTER_NAME    = EARTH
REF_FRAME      = TEME
TIME_SYSTEM    = UTC
MEAN_ELEMENT_THEORY = SGP/SGP4

EPOCH          = 2025-12-14T19:48:43.111008
MEAN_MOTION    = 14.15286904
ECCENTRICITY   = .00079395
INCLINATION    = 71.0080
RA_OF_ASC_NODE = 33.4232
ARG_OF_PERICENTER = 93.5255
MEAN_ANOMALY   = 266.6776

EPHEMERIS_TYPE = 0
CLASSIFICATION_TYPE = U
NORAD_CAT_ID   = 22566
ELEMENT_SET_NO = 999
REV_AT_EPOCH   = 69016
BSTAR          = .37080117E-4
MEAN_MOTION_DOT = .25E-6
MEAN_MOTION_DDOT = 0

CCSDS_OMM_VERS = 2.0
CREATION_DATE  = 
ORIGINATOR     = 

OBJECT_NAME    = COSMOS 2242
OBJECT_ID      = 1993-024A
CENTER_NAME    = EARTH
REF_FRAME      = TEME
TIME_SYSTEM    = UTC
MEAN_ELEMENT_THEORY = SGP/SGP4

EPOCH          = 2025-12-14T23:26:19.706208
MEAN_MOTION    = 14.96116537
ECCENTRICITY   = .00150725
INCLINATION    = 82.5188
RA_OF_ASC_NODE = 347.7069
ARG_OF_PERICENTER = 225.9621
MEAN_ANOMALY   = 134.0360

EPHEMERIS_TYPE = 0
CLASSIFICATION_TYPE = U
NORAD_CAT_ID   = 22626
ELEMENT_SET_NO = 999
REV_AT_EPOCH   = 76772
BSTAR          = .1452528E-3
MEAN_MOTION_DOT = .1662E-4
MEAN_MOTION_DDOT = 0

CCSDS_OMM_VERS = 2.0
CREATION_DATE  = 
ORIGINATOR     = 

OBJECT_NAME    = SL-16 R/B
OBJECT_ID      = 1993-059B
CENTER_NAME    = EARTH
REF_FRAME      = TEME
TIME_SYSTEM    = UTC
MEAN_ELEMENT_THEORY = SGP/SGP4

EPOCH          = 2025-12-14T22:05:02.332896
MEAN_MOTION    = 14.17213300
ECCENTRICITY   = .00181185
INCLINATION    = 70.9886
RA_OF_ASC_NODE = 189.8885
ARG_OF_PERICENTER = 332.4699
MEAN_ANOMALY   = 27.5463

EPHEMERIS_TYPE = 0
CLASSIFICATION_TYPE = U
NORAD_CAT_ID   = 22803
ELEMENT_SET_NO = 999
REV_AT_EPOCH   = 66752
BSTAR          = -.58081771E-4
MEAN_MOTION_DOT = -.166E-5
MEAN_MOTION_DDOT = 0

CCSDS_OMM_VERS = 2.0
CREATION_DATE  = 
ORIGINATOR     = 

OBJECT_NAME    = ARIANE 40 R/B
OBJECT_ID      = 1993-061H
CENTER_NAME    = EARTH
REF_FRAME      = TEME
TIME_SYSTEM    = UTC
MEAN_ELEMENT_THEORY = SGP/SGP4

EPOCH          = 2025-12-14T18:47:40.075008
MEAN_MOTION    = 14.32802813
ECCENTRICITY   = .00109965
INCLINATION    = 98.5075
RA_OF_ASC_NODE = 54.2758
ARG_OF_PERICENTER = 170.0729
MEAN_ANOMALY   = 190.0674

EPHEMERIS_TYPE = 0
CLASSIFICATION_TYPE = U
NORAD_CAT_ID   = 22830
ELEMENT_SET_NO = 999
REV_AT_EPOCH   = 68194
BSTAR          = .13122206E-3
MEAN_MOTION_DOT = .315E-5
MEAN_MOTION_DDOT = 0

CCSDS_OMM_VERS = 2.0
CREATION_DATE  = 
ORIGINATOR     = 

OBJECT_NAME    = COSMOS 2278
OBJECT_ID      = 1994-023A
CENTER_NAME    = EARTH
REF_FRAME      = TEME
TIME_SYSTEM    = UTC
MEAN_ELEMENT_THEORY = SGP/SGP4

EPOCH          = 2025-12-14T17:28:51.742560
MEAN_MOTION    = 14.14349943
ECCENTRICITY   = .00082164
INCLINATION    = 71.0539
RA_OF_ASC_NODE = 352.8505
ARG_OF_PERICENTER = 176.4765
MEAN_ANOMALY   = 183.6417

EPHEMERIS_TYPE = 0
CLASSIFICATION_TYPE = U
NORAD_CAT_ID   = 23087
ELEMENT_SET_NO = 999
REV_AT_EPOCH   = 63279
BSTAR          = -.73263582E-4
MEAN_MOTION_DOT = -.187E-5
MEAN_MOTION_DDOT = 0

CCSDS_OMM_VERS = 2.0
CREATION_DATE  = 
ORIGINATOR     = 

OBJECT_NAME    = SL-16 R/B
OBJECT_ID      = 1994-023B
CENTER_NAME    = EARTH
REF_FRAME      = TEME
TIME_SYSTEM    = UTC
MEAN_ELEMENT_THEORY = SGP/SGP4

EPOCH          = 2025-12-14T21:13:21.638208
MEAN_MOTION    = 14.15002958
ECCENTRICITY   = .00014898
INCLINATION    = 71.0003
RA_OF_ASC_NODE = 248.9824
ARG_OF_PERICENTER = 19.8906
MEAN_ANOMALY   = 340.2275

EPHEMERIS_TYPE = 0
CLASSIFICATION_TYPE = U
NORAD_CAT_ID   = 23088
ELEMENT_SET_NO = 999
REV_AT_EPOCH   = 63409
BSTAR          = -.21079275E-4
MEAN_MOTION_DOT = -.88E-6
MEAN_MOTION_DDOT = 0

CCSDS_OMM_VERS = 2.0
CREATION_DATE  = 
ORIGINATOR     = 

OBJECT_NAME    = SL-16 R/B
OBJECT_ID      = 1994-074B
CENTER_NAME    = EARTH
REF_FRAME      = TEME
TIME_SYSTEM    = UTC
MEAN_ELEMENT_THEORY = SGP/SGP4

EPOCH          = 2025-12-14T20:38:58.641216
MEAN_MOTION    = 14.79291833
ECCENTRICITY   = .00076749
INCLINATION    = 97.7201
RA_OF_ASC_NODE = 18.0807
ARG_OF_PERICENTER = 129.9041
MEAN_ANOMALY   = 43.1397

EPHEMERIS_TYPE = 0
CLASSIFICATION_TYPE = U
NORAD_CAT_ID   = 23343
ELEMENT_SET_NO = 999
REV_AT_EPOCH   = 67470
BSTAR          = .77309788E-4
MEAN_MOTION_DOT = .526E-5
MEAN_MOTION_DDOT = 0

CCSDS_OMM_VERS = 2.0
CREATION_DATE  = 
ORIGINATOR     = 

OBJECT_NAME    = SL-16 R/B
OBJECT_ID      = 1994-077B
CENTER_NAME    = EARTH
REF_FRAME      = TEME
TIME_SYSTEM    = UTC
MEAN_ELEMENT_THEORY = SGP/SGP4

EPOCH          = 2025-12-14T21:34:31.230912
MEAN_MOTION    = 14.15551108
ECCENTRICITY   = .00047052
INCLINATION    = 70.9812
RA_OF_ASC_NODE = 170.8709
ARG_OF_PERICENTER = 282.5095
MEAN_ANOMALY   = 77.5501

EPHEMERIS_TYPE = 0
CLASSIFICATION_TYPE = U
NORAD_CAT_ID   = 23405
ELEMENT_SET_NO = 999
REV_AT_EPOCH   = 60423
BSTAR          = .1599965E-3
MEAN_MOTION_DOT = .265E-5
MEAN_MOTION_DDOT = 0

CCSDS_OMM_VERS = 2.0
CREATION_DATE  = 
ORIGINATOR     = 

OBJECT_NAME    = ARIANE 40+ R/B
OBJECT_ID      = 1995-021B
CENTER_NAME    = EARTH
REF_FRAME      = TEME
TIME_SYSTEM    = UTC
MEAN_ELEMENT_THEORY = SGP/SGP4

EPOCH          = 2025-12-14T19:57:06.821280
MEAN_MOTION    = 14.39697156
ECCENTRICITY   = .00074048
INCLINATION    = 98.4649
RA_OF_ASC_NODE = 56.3949
ARG_OF_PERICENTER = 44.5117
MEAN_ANOMALY   = 67.2244

EPHEMERIS_TYPE = 0
CLASSIFICATION_TYPE = U
NORAD_CAT_ID   = 23561
ELEMENT_SET_NO = 999
REV_AT_EPOCH   = 60703
BSTAR          = .13091384E-3
MEAN_MOTION_DOT = .366E-5
MEAN_MOTION_DDOT = 0

CCSDS_OMM_VERS = 2.0
CREATION_DATE  = 
ORIGINATOR     = 

OBJECT_NAME    = SL-16 R/B
OBJECT_ID      = 1995-058B
CENTER_NAME    = EARTH
REF_FRAME      = TEME
TIME_SYSTEM    = UTC
MEAN_ELEMENT_THEORY = SGP/SGP4

EPOCH          = 2025-12-14T18:15:00.554976
MEAN_MOTION    = 14.15484132
ECCENTRICITY   = .00149819
INCLINATION    = 71.0225
RA_OF_ASC_NODE = 358.5619
ARG_OF_PERICENTER = 252.8983
MEAN_ANOMALY   = 107.0500

EPHEMERIS_TYPE = 0
CLASSIFICATION_TYPE = U
NORAD_CAT_ID   = 23705
ELEMENT_SET_NO = 999
REV_AT_EPOCH   = 55583
BSTAR          = -.4045318E-5
MEAN_MOTION_DOT = -.56E-6
MEAN_MOTION_DDOT = 0

CCSDS_OMM_VERS = 2.0
CREATION_DATE  = 
ORIGINATOR     = 

OBJECT_NAME    = SL-16 R/B
OBJECT_ID      = 1996-051B
CENTER_NAME    = EARTH
REF_FRAME      = TEME
TIME_SYSTEM    = UTC
MEAN_ELEMENT_THEORY = SGP/SGP4

EPOCH          = 2025-12-14T18:07:05.754144
MEAN_MOTION    = 14.12397110
ECCENTRICITY   = .0019434
INCLINATION    = 70.7596
RA_OF_ASC_NODE = 355.0183
ARG_OF_PERICENTER = 258.8777
MEAN_ANOMALY   = 101.0158

EPHEMERIS_TYPE = 0
CLASSIFICATION_TYPE = U
NORAD_CAT_ID   = 24298
ELEMENT_SET_NO = 999
REV_AT_EPOCH   = 50965
BSTAR          = .47087487E-4
MEAN_MOTION_DOT = .38E-6
MEAN_MOTION_DDOT = 0

CCSDS_OMM_VERS = 2.0
CREATION_DATE  = 
ORIGINATOR     = 

OBJECT_NAME    = ORBVIEW 2 (SEASTAR)
OBJECT_ID      = 1997-037A
CENTER_NAME    = EARTH
REF_FRAME      = TEME
TIME_SYSTEM    = UTC
MEAN_ELEMENT_THEORY = SGP/SGP4

EPOCH          = 2025-12-14T22:28:57.079200
MEAN_MOTION    = 14.35418766
ECCENTRICITY   = .00015689
INCLINATION    = 98.8457
RA_OF_ASC_NODE = 146.0665
ARG_OF_PERICENTER = 333.3486
MEAN_ANOMALY   = 26.7618

EPHEMERIS_TYPE = 0
CLASSIFICATION_TYPE = U
NORAD_CAT_ID   = 24883
ELEMENT_SET_NO = 999
REV_AT_EPOCH   = 49631
BSTAR          = .12978912E-3
MEAN_MOTION_DOT = .326E-5
MEAN_MOTION_DDOT = 0

